{"spkid": "54509621", "covariance": {"epoch": "2460739.5", "elements": [{"title": "eccentricity", "value": ".6615750116187741", "units": null, "name": "e", "sigma": 3.51625756152558e-08, "label": "e"}, {"units": "au", "title": "perihelion distance", "value": ".8515156397417896", "name": "q", "sigma": 2.67465850674229e-08, "label": "q"}, {"label": "tp", "value": "2460636.921839953833", "title": "time of perihelion passage", "units": "TDB", "sigma": 3.16448401757331e-06, "name": "tp"}, {"units": "deg", "title": "longitude of the ascending node", "value": "271.3664200237667", "name": "om", "sigma": 8.11554100652356e-06, "label": "node"}, {"label": "peri", "sigma": 8.13736857318212e-06, "name": "w", "units": "deg", "title": "argument of perihelion", "value": "134.3639389609061"}, {"label": "i", "units": "deg", "title": "inclination", "value": "3.408195287402403", "name": "i", "sigma": 9.94704850305219e-07}], "data": [["1.236406723898582E-15", "-9.305163465905474E-17", "6.30832004235158E-14", "8.668651708532615E-14", "-4.102448592854315E-14", "8.589384612029548E-15"], ["-9.305163465905474E-17", "7.153798127688897E-16", "-9.076505713812261E-15", "-1.158571935237627E-13", "1.731891732024056E-13", "-7.081629307629915E-15"], ["6.30832004235158E-14", "-9.076505713812261E-15", "1.001395909747692E-11", "1.919687198551098E-11", "-1.135306273003559E-11", "1.207133581308775E-12"], ["8.668651708532615E-14", "-1.158571935237627E-13", "1.919687198551098E-11", "6.586200582856551E-11", "-6.00095188736453E-11", "5.559981970605512E-12"], ["-4.102448592854315E-14", "1.731891732024056E-13", "-1.135306273003559E-11", "-6.00095188736453E-11", "6.621676729581194E-11", "-5.186247093119144E-12"], ["8.589384612029548E-15", "-7.081629307629915E-15", "1.207133581308775E-12", "5.559981970605512E-12", "-5.186247093119144E-12", "9.894377392207279E-13"]], "labels": ["e", "q", "tp", "node", "peri", "i"]}, "elements": [{"label": "e", "units": null, "title": "eccentricity", "value": ".6613330031903025", "name": "e", "sigma": "3.5167E-8"}, {"label": "a", "name": "a", "sigma": "2.6541E-7", "title": "semi-major axis", "value": "2.515989042463847", "units": "au"}, {"label": "q", "value": ".8520824530173376", "title": "perihelion distance", "units": "au", "sigma": "2.6777E-8", "name": "q"}, {"label": "i", "value": "3.408056116055506", "title": "inclination; angle with respect to x-y ecliptic plane", "units": "deg", "sigma": "9.9471E-7", "name": "i"}, {"label": "node", "sigma": "8.1145E-6", "name": "om", "title": "longitude of the ascending node", "value": "271.3669515560409", "units": "deg"}, {"label": "peri", "name": "w", "sigma": "8.1366E-6", "title": "argument of perihelion", "value": "134.3664504369881", "units": "deg"}, {"label": "M", "title": "mean anomaly", "value": "139.2118467323936", "units": "deg", "sigma": "2.245E-5", "name": "ma"}, {"label": "tp", "units": "TDB", "value": "2460636.816608526810", "title": "time of perihelion passage", "sigma": "3.1684E-6", "name": "tp"}, {"name": "per", "sigma": ".00023066", "title": "sidereal orbital period", "value": "1457.677817610109", "units": "d", "label": "period"}, {"label": "n", "units": "deg/d", "title": "mean motion", "value": ".2469681541770506", "name": "n", "sigma": "3.9079E-8"}, {"label": "Q", "units": "au", "title": "aphelion distance", "value": "4.179895631910357", "name": "ad", "sigma": "4.4094E-7"}], "epoch": "2461200.5"}